ONEWEB-0668             
1 56711U 23068B   25337.81275790  .00000399  00000+0  10097-2 0  9997
2 56711  87.9050 267.6587 0001232  64.4624 295.6634 13.16593288126073
ONEWEB-0676             
1 56712U 23068C   25337.82066502 -.00001929  00000+0 -50811-2 0  9998
2 56712  87.9039 267.6790 0001948  84.4163 275.7190 13.16585066125992
ONEWEB-0677             
1 56713U 23068D   25337.43118083  .00000051  00000+0  93227-4 0  9991
2 56713  87.9197 313.4726 0001776  90.0563 270.0774 13.20770707123967
ONEWEB-0678             
1 56714U 23068E   25337.92083358 -.00000043  00000+0 -14921-3 0  9998
2 56714  87.8987 298.1461 0002132  80.6639 279.4732 13.15548670123610
ONEWEB-0679             
1 56715U 23068F   25337.77948141  .00000031  00000+0  47336-4 0  9994
2 56715  87.9031 267.6727 0001256  86.3833 273.7442 13.16593270126012
ONEWEB-0680             
1 56716U 23068G   25337.34576108  .00000063  00000+0  12077-3 0  9996
2 56716  87.9215 283.0215 0001230  73.1962 286.9306 13.21824254125222
ONEWEB-0681             
1 56717U 23068H   25337.77937460  .00000075  00000+0  15104-3 0  9993
2 56717  87.9205 282.9513 0002212 107.9000 252.2376 13.21824950125272
ONEWEB-0682             
1 56718U 23068J   25337.41455497  .00000083  00000+0  18717-3 0  9992
2 56718  87.8977 298.2624 0001306  81.0561 279.0717 13.15551360123716
